HAWK-11C                
1 62381U 24247E   26068.51221537  .00009223  00000+0  33290-3 0  9992
2 62381  45.0045 114.8762 0005900 329.7040  30.3502 15.28848020 67743
STARLINK-35410          
1 66024U 25232V   26068.38372192  .00015825  00000+0  54528-3 0  9996
2 66024  53.1578 104.9751 0001238  87.7374 272.3769 15.30201096 23396
